ONEWEB-0515             
1 54133U 22138W   25271.22763117 -.00000012  00000+0 -61827-4 0  9990
2 54133  87.9255 326.6540 0002654 105.6119 254.5308 13.20772771144722
ONEWEB-0516             
1 54134U 22138X   25271.27602194  .00000010  00000+0 -79013-5 0  9997
2 54134  87.9273 357.0796 0001697 104.8724 255.2597 13.19725769142283
ONEWEB-0517             
1 54135U 22138Y   25271.25548631  .00000141  00000+0  31906-3 0  9992
2 54135  87.9291 357.0509 0001805  89.5621 270.5719 13.19726994142289
ONEWEB-0518             
1 54136U 22138Z   25271.27443032  .00000122  00000+0  27276-3 0  9998
2 54136  87.9279 357.0811 0001629 101.2554 258.8761 13.19726106142284
ONEWEB-0519             
1 54137U 22138AA  25270.69317972  .00000009  00000+0 -99126-5 0  9997
2 54137  87.9289 357.1537 0001727  90.8313 269.3018 13.19726581142219
ONEWEB-0520             
1 54138U 22138AB  25271.25863350  .00000310  00000+0  74201-3 0  9996
2 54138  87.9288 357.0453 0001483 105.7352 254.3944 13.19726635142271
ONEWEB-0521             
1 54139U 22138AC  25271.21599773 -.00000023  00000+0 -88522-4 0  9993
2 54139  87.9291 357.0393 0001839  92.6164 267.5179 13.19723197142219
ONEWEB-0522             
1 54140U 22138AD  25271.27126961  .00000143  00000+0  32551-3 0  9997
2 54140  87.9288 357.0296 0001736 102.3918 257.7409 13.19727314142268
ONEWEB-0523             
1 54141U 22138AE  25271.21502285  .00000056  00000+0  10552-3 0  9999
2 54141  87.9245 326.6816 0002715  93.3213 266.8231 13.20773202144723
ONEWEB-0524             
1 54142U 22138AF  25271.05245451  .00000084  00000+0  17348-3 0  9992
2 54142  87.9249 326.7145 0002533 112.3183 247.8219 13.20769970144700
ONEWEB-0525             
1 54143U 22138AG  25271.21441257  .00000070  00000+0  14137-3 0  9991
2 54143  87.9291 357.0625 0001486 103.8389 256.2909 13.19724395142277
ONEWEB-0526             
1 54144U 22138AH  25271.17176243  .00000129  00000+0  28952-3 0  9992
2 54144  87.9286 357.0577 0001734 103.2658 256.8668 13.19725750142248
ONEWEB-0529             
1 54145U 22138AJ  25271.17493105  .00000096  00000+0  20770-3 0  9995
2 54145  87.9276 357.0956 0001585 105.2171 254.9137 13.19725888142269
ONEWEB-0531             
1 54146U 22138AK  25271.18975071 -.00001036  00000+0 -25813-2 0  9993
2 54146  87.9246 326.6776 0002654  97.9437 262.1998 13.20773761144723
ONEWEB-0535             
1 54147U 22138AL  25271.28390480 -.00000024  00000+0 -91506-4 0  9990
2 54147  87.9294 357.0312 0002162  94.8728 265.2652 13.19726269142294
ONEWEB-0536             
1 54148U 22138AM  25271.17713575  .00000138  00000+0  30708-3 0  9993
2 54148  87.9244 326.7277 0002886 103.7507 256.3948 13.20771853144710
