[{"OBJECT_NAME":"ONEWEB-0515","OBJECT_ID":"2022-138W","EPOCH":"2025-09-28T05:27:47.333088","MEAN_MOTION":13.20772771,"ECCENTRICITY":0.00026546,"INCLINATION":87.9255,"RA_OF_ASC_NODE":326.654,"ARG_OF_PERICENTER":105.6119,"MEAN_ANOMALY":254.5308,"EPHEMERIS_TYPE":0,"CLASSIFICATION_TYPE":"U","NORAD_CAT_ID":54133,"ELEMENT_SET_NO":999,"REV_AT_EPOCH":14472,"BSTAR":-6.1826749e-5,"MEAN_MOTION_DOT":-1.2e-7,"MEAN_MOTION_DDOT":0},{"OBJECT_NAME":"ONEWEB-0516","OBJECT_ID":"2022-138X","EPOCH":"2025-09-28T06:37:28.295616","MEAN_MOTION":13.19725769,"ECCENTRICITY":0.00016979,"INCLINATION":87.9273,"RA_OF_ASC_NODE":357.0796,"ARG_OF_PERICENTER":104.8724,"MEAN_ANOMALY":255.2597,"EPHEMERIS_TYPE":0,"CLASSIFICATION_TYPE":"U","NORAD_CAT_ID":54134,"ELEMENT_SET_NO":999,"REV_AT_EPOCH":14228,"BSTAR":-7.901281e-6,"MEAN_MOTION_DOT":1.0e-7,"MEAN_MOTION_DDOT":0},{"OBJECT_NAME":"ONEWEB-0517","OBJECT_ID":"2022-138Y","EPOCH":"2025-09-28T06:07:54.017184","MEAN_MOTION":13.19726994,"ECCENTRICITY":0.00018054,"INCLINATION":87.9291,"RA_OF_ASC_NODE":357.0509,"ARG_OF_PERICENTER":89.5621,"MEAN_ANOMALY":270.5719,"EPHEMERIS_TYPE":0,"CLASSIFICATION_TYPE":"U","NORAD_CAT_ID":54135,"ELEMENT_SET_NO":999,"REV_AT_EPOCH":14228,"BSTAR":0.00031906391,"MEAN_MOTION_DOT":1.41e-6,"MEAN_MOTION_DDOT":0},{"OBJECT_NAME":"ONEWEB-0518","OBJECT_ID":"2022-138Z","EPOCH":"2025-09-28T06:35:10.779648","MEAN_MOTION":13.19726106,"ECCENTRICITY":0.00016291,"INCLINATION":87.9279,"RA_OF_ASC_NODE":357.0811,"ARG_OF_PERICENTER":101.2554,"MEAN_ANOMALY":258.8761,"EPHEMERIS_TYPE":0,"CLASSIFICATION_TYPE":"U","NORAD_CAT_ID":54136,"ELEMENT_SET_NO":999,"REV_AT_EPOCH":14228,"BSTAR":0.00027275892,"MEAN_MOTION_DOT":1.22e-6,"MEAN_MOTION_DDOT":0},{"OBJECT_NAME":"ONEWEB-0519","OBJECT_ID":"2022-138AA","EPOCH":"2025-09-27T16:38:10.727808","MEAN_MOTION":13.19726581,"ECCENTRICITY":0.00017277,"INCLINATION":87.9289,"RA_OF_ASC_NODE":357.1537,"ARG_OF_PERICENTER":90.8313,"MEAN_ANOMALY":269.3018,"EPHEMERIS_TYPE":0,"CLASSIFICATION_TYPE":"U","NORAD_CAT_ID":54137,"ELEMENT_SET_NO":999,"REV_AT_EPOCH":14221,"BSTAR":-9.912641e-6,"MEAN_MOTION_DOT":9.0e-8,"MEAN_MOTION_DDOT":0},{"OBJECT_NAME":"ONEWEB-0520","OBJECT_ID":"2022-138AB","EPOCH":"2025-09-28T06:12:25.934400","MEAN_MOTION":13.19726635,"ECCENTRICITY":0.00014836,"INCLINATION":87.9288,"RA_OF_ASC_NODE":357.0453,"ARG_OF_PERICENTER":105.7352,"MEAN_ANOMALY":254.3944,"EPHEMERIS_TYPE":0,"CLASSIFICATION_TYPE":"U","NORAD_CAT_ID":54138,"ELEMENT_SET_NO":999,"REV_AT_EPOCH":14227,"BSTAR":0.00074200962,"MEAN_MOTION_DOT":3.1e-6,"MEAN_MOTION_DDOT":0},{"OBJECT_NAME":"ONEWEB-0521","OBJECT_ID":"2022-138AC","EPOCH":"2025-09-28T05:11:02.203872","MEAN_MOTION":13.19723197,"ECCENTRICITY":0.00018399,"INCLINATION":87.9291,"RA_OF_ASC_NODE":357.0393,"ARG_OF_PERICENTER":92.6164,"MEAN_ANOMALY":267.5179,"EPHEMERIS_TYPE":0,"CLASSIFICATION_TYPE":"U","NORAD_CAT_ID":54139,"ELEMENT_SET_NO":999,"REV_AT_EPOCH":14221,"BSTAR":-8.8521564e-5,"MEAN_MOTION_DOT":-2.3e-7,"MEAN_MOTION_DDOT":0},{"OBJECT_NAME":"ONEWEB-0522","OBJECT_ID":"2022-138AD","EPOCH":"2025-09-28T06:30:37.694304","MEAN_MOTION":13.19727314,"ECCENTRICITY":0.00017365,"INCLINATION":87.9288,"RA_OF_ASC_NODE":357.0296,"ARG_OF_PERICENTER":102.3918,"MEAN_ANOMALY":257.7409,"EPHEMERIS_TYPE":0,"CLASSIFICATION_TYPE":"U","NORAD_CAT_ID":54140,"ELEMENT_SET_NO":999,"REV_AT_EPOCH":14226,"BSTAR":0.00032551044,"MEAN_MOTION_DOT":1.43e-6,"MEAN_MOTION_DDOT":0},{"OBJECT_NAME":"ONEWEB-0523","OBJECT_ID":"2022-138AE","EPOCH":"2025-09-28T05:09:37.974240","MEAN_MOTION":13.20773202,"ECCENTRICITY":0.00027154,"INCLINATION":87.9245,"RA_OF_ASC_NODE":326.6816,"ARG_OF_PERICENTER":93.3213,"MEAN_ANOMALY":266.8231,"EPHEMERIS_TYPE":0,"CLASSIFICATION_TYPE":"U","NORAD_CAT_ID":54141,"ELEMENT_SET_NO":999,"REV_AT_EPOCH":14472,"BSTAR":0.00010552055,"MEAN_MOTION_DOT":5.6e-7,"MEAN_MOTION_DDOT":0},{"OBJECT_NAME":"ONEWEB-0524","OBJECT_ID":"2022-138AF","EPOCH":"2025-09-28T01:15:32.069664","MEAN_MOTION":13.2076997,"ECCENTRICITY":0.0002533,"INCLINATION":87.9249,"RA_OF_ASC_NODE":326.7145,"ARG_OF_PERICENTER":112.3183,"MEAN_ANOMALY":247.8219,"EPHEMERIS_TYPE":0,"CLASSIFICATION_TYPE":"U","NORAD_CAT_ID":54142,"ELEMENT_SET_NO":999,"REV_AT_EPOCH":14470,"BSTAR":0.00017347936,"MEAN_MOTION_DOT":8.4e-7,"MEAN_MOTION_DDOT":0},{"OBJECT_NAME":"ONEWEB-0525","OBJECT_ID":"2022-138AG","EPOCH":"2025-09-28T05:08:45.246048","MEAN_MOTION":13.19724395,"ECCENTRICITY":0.00014864,"INCLINATION":87.9291,"RA_OF_ASC_NODE":357.0625,"ARG_OF_PERICENTER":103.8389,"MEAN_ANOMALY":256.2909,"EPHEMERIS_TYPE":0,"CLASSIFICATION_TYPE":"U","NORAD_CAT_ID":54143,"ELEMENT_SET_NO":999,"REV_AT_EPOCH":14227,"BSTAR":0.00014137479,"MEAN_MOTION_DOT":7.0e-7,"MEAN_MOTION_DDOT":0},{"OBJECT_NAME":"ONEWEB-0526","OBJECT_ID":"2022-138AH","EPOCH":"2025-09-28T04:07:20.273952","MEAN_MOTION":13.1972575,"ECCENTRICITY":0.00017348,"INCLINATION":87.9286,"RA_OF_ASC_NODE":357.0577,"ARG_OF_PERICENTER":103.2658,"MEAN_ANOMALY":256.8668,"EPHEMERIS_TYPE":0,"CLASSIFICATION_TYPE":"U","NORAD_CAT_ID":54144,"ELEMENT_SET_NO":999,"REV_AT_EPOCH":14224,"BSTAR":0.00028951619,"MEAN_MOTION_DOT":1.29e-6,"MEAN_MOTION_DDOT":0},{"OBJECT_NAME":"ONEWEB-0529","OBJECT_ID":"2022-138AJ","EPOCH":"2025-09-28T04:11:54.042720","MEAN_MOTION":13.19725888,"ECCENTRICITY":0.00015853,"INCLINATION":87.9276,"RA_OF_ASC_NODE":357.0956,"ARG_OF_PERICENTER":105.2171,"MEAN_ANOMALY":254.9137,"EPHEMERIS_TYPE":0,"CLASSIFICATION_TYPE":"U","NORAD_CAT_ID":54145,"ELEMENT_SET_NO":999,"REV_AT_EPOCH":14226,"BSTAR":0.00020770181,"MEAN_MOTION_DOT":9.6e-7,"MEAN_MOTION_DDOT":0},{"OBJECT_NAME":"ONEWEB-0531","OBJECT_ID":"2022-138AK","EPOCH":"2025-09-28T04:33:14.461344","MEAN_MOTION":13.20773761,"ECCENTRICITY":0.00026543,"INCLINATION":87.9246,"RA_OF_ASC_NODE":326.6776,"ARG_OF_PERICENTER":97.9437,"MEAN_ANOMALY":262.1998,"EPHEMERIS_TYPE":0,"CLASSIFICATION_TYPE":"U","NORAD_CAT_ID":54146,"ELEMENT_SET_NO":999,"REV_AT_EPOCH":14472,"BSTAR":-0.0025812883,"MEAN_MOTION_DOT":-1.036e-5,"MEAN_MOTION_DDOT":0},{"OBJECT_NAME":"ONEWEB-0535","OBJECT_ID":"2022-138AL","EPOCH":"2025-09-28T06:48:49.374720","MEAN_MOTION":13.19726269,"ECCENTRICITY":0.00021626,"INCLINATION":87.9294,"RA_OF_ASC_NODE":357.0312,"ARG_OF_PERICENTER":94.8728,"MEAN_ANOMALY":265.2652,"EPHEMERIS_TYPE":0,"CLASSIFICATION_TYPE":"U","NORAD_CAT_ID":54147,"ELEMENT_SET_NO":999,"REV_AT_EPOCH":14229,"BSTAR":-9.1506223e-5,"MEAN_MOTION_DOT":-2.4e-7,"MEAN_MOTION_DDOT":0},{"OBJECT_NAME":"ONEWEB-0536","OBJECT_ID":"2022-138AM","EPOCH":"2025-09-28T04:15:04.528800","MEAN_MOTION":13.20771853,"ECCENTRICITY":0.00028866,"INCLINATION":87.9244,"RA_OF_ASC_NODE":326.7277,"ARG_OF_PERICENTER":103.7507,"MEAN_ANOMALY":256.3948,"EPHEMERIS_TYPE":0,"CLASSIFICATION_TYPE":"U","NORAD_CAT_ID":54148,"ELEMENT_SET_NO":999,"REV_AT_EPOCH":14471,"BSTAR":0.00030708028,"MEAN_MOTION_DOT":1.38e-6,"MEAN_MOTION_DDOT":0}]
